NORAD_CAT_ID,OBJECT_NAME,OBJECT_TYPE,EPOCH,MEAN_MOTION,ECCENTRICITY,INCLINATION,RA_OF_ASC_NODE,ARG_OF_PERICENTER,MEAN_ANOMALY,BSTAR,MEAN_MOTION_DOT,MEAN_MOTION_DDOT,TLE_LINE0,TLE_LINE1,TLE_LINE2,SEMIMAJOR_AXIS,PERIOD,APOGEE,PERIGEE,DECAYED
52302.0,STARLINK-3564,PAYLOAD,2022-12-05 10:42:05,15.08852719,0.0002351,53.2176,32.3283,39.8636,320.2528,0.00037355,5.664e-05,0.0,0 STARLINK-3564,1 52302U 22041AT  22339.44590207  .00005664  00000-0  37355-3 0  9998,2 52302  53.2176  32.3283 0002351  39.8636 320.2528 15.08852719 36169,6917.842,95.437,541.3330000000002,538.08,0.0
52302.0,STARLINK-3564,PAYLOAD,2022-12-05 13:52:52,15.08852564,0.0002108,53.2178,31.7329,30.9191,329.1925,0.00043044,6.571e-05,0.0,0 STARLINK-3564,1 52302U 22041AT  22339.57838168  .00006571  00000-0  43044-3 0  9993,2 52302  53.2178  31.7329 0002108  30.9191 329.1925 15.08852564 34977,6917.842,95.437,541.165,538.249,0.0
52302.0,STARLINK-3564,PAYLOAD,2022-12-06 04:11:20,15.08849626,0.0002066,53.2178,29.0566,37.3895,322.7241,0.00017971,2.574e-05,0.0,0 STARLINK-3564,1 52302U 22041AT  22340.17453897  .00002574  00000-0  17971-3 0  9992,2 52302  53.2178  29.0566 0002066  37.3895 322.7241 15.08849626 36275,6917.851,95.437,541.145,538.2869999999998,0.0
52302.0,STARLINK-3564,PAYLOAD,2022-12-06 12:08:16,15.08840986,0.0002223,53.2173,27.57,37.0851,323.0295,-1.6816e-05,-5.56e-06,0.0,0 STARLINK-3564,1 52302U 22041AT  22340.50574205 -.00000556  00000-0 -16816-4 0  9994,2 52302  53.2173  27.5700 0002223  37.0851 323.0295 15.08840986 35112,6917.877,95.437,541.28,538.205,0.0
52302.0,STARLINK-3564,PAYLOAD,2022-12-06 13:43:39,15.08838433,0.0002211,53.2176,27.2734,37.3544,322.7601,-5.3998e-05,-1.148e-05,0.0,0 STARLINK-3564,1 52302U 22041AT  22340.57198322 -.00001148  00000-0 -53998-4 0  9993,2 52302  53.2176  27.2734 0002211  37.3544 322.7601 15.08838433 36334,6917.885,95.438,541.28,538.221,0.0
52302.0,STARLINK-3564,PAYLOAD,2022-12-07 19:55:59,15.08842993,0.0002277,53.2175,21.6233,38.2438,321.8715,0.00014167,1.967e-05,0.0,0 STARLINK-3564,1 52302U 22041AT  22341.83054530  .00001967  00000-0  14167-3 0  9996,2 52302  53.2175  21.6233 0002277  38.2438 321.8715 15.08842993 36522,6917.871,95.437,541.311,538.161,0.0
52302.0,STARLINK-3564,PAYLOAD,2022-12-08 11:49:50,15.08844543,0.0002221,53.217,18.6501,38.2059,321.909,0.00025864,3.831e-05,0.0,0 STARLINK-3564,1 52302U 22041AT  22342.49294461  .00003831  00000-0  25864-3 0  9996,2 52302  53.2170  18.6501 0002221  38.2059 321.9090 15.08844543 35416,6917.8669999999975,95.437,541.268,538.195,0.0
52302.0,STARLINK-3564,PAYLOAD,2022-12-08 19:46:45,15.08853418,0.000223,53.2172,17.1629,37.9622,322.1527,0.00041579,6.338e-05,0.0,0 STARLINK-3564,1 52302U 22041AT  22342.82414039  .00006338  00000-0  41579-3 0  9994,2 52302  53.2172  17.1629 0002230  37.9622 322.1527 15.08853418 35469,6917.839,95.437,541.247,538.1619999999998,0.0
52302.0,STARLINK-3564,PAYLOAD,2022-12-09 02:08:18,15.08848588,0.0002127,53.2173,15.9733,37.5981,322.516,0.00024409,3.6e-05,0.0,0 STARLINK-3564,1 52302U 22041AT  22343.08910020  .00003600  00000-0  24409-3 0  9996,2 52302  53.2173  15.9733 0002127  37.5981 322.5160 15.08848588 36719,6917.854,95.437,541.191,538.248,0.0
52302.0,STARLINK-3564,PAYLOAD,2022-12-09 05:19:04,15.08851421,0.0002144,53.2172,15.3784,36.5745,323.5393,0.00034349,5.184e-05,0.0,0 STARLINK-3564,1 52302U 22041AT  22343.22157923  .00005184  00000-0  34349-3 0  9990,2 52302  53.2172  15.3784 0002144  36.5745 323.5393 15.08851421 35521,6917.845,95.437,541.194,538.227,0.0
52302.0,STARLINK-3564,PAYLOAD,2022-12-10 05:09:53,15.08815275,0.0002425,53.2179,10.9207,31.9001,328.2138,-0.00025557,-4.351e-05,0.0,0 STARLINK-3564,1 52302U 22041AT  22344.21520144 -.00004351  00000-0 -25557-3 0  9997,2 52302  53.2179  10.9207 0002425  31.9001 328.2138 15.08815275 36881,6917.956,95.439,541.499,538.143,0.0
52302.0,STARLINK-3564,PAYLOAD,2022-12-10 11:31:26,15.08825128,0.0002311,53.217,9.7292,38.7346,321.3811,0.00011864,1.6e-05,0.0,0 STARLINK-3564,1 52302U 22041AT  22344.48016272  .00001600  00000-0  11864-3 0  9996,2 52302  53.2170   9.7292 0002311  38.7346 321.3811 15.08825128 36928,6917.926,95.438,541.39,538.192,0.0
52302.0,STARLINK-3564,PAYLOAD,2022-12-11 11:22:13,15.08849835,0.0002467,53.2176,5.2682,40.827,319.2907,0.00089179,0.00013937,0.0,0 STARLINK-3564,1 52302U 22041AT  22345.47376895  .00013937  00000-0  89179-3 0  9996,2 52302  53.2176   5.2682 0002467  40.8270 319.2907 15.08849835 37070,6917.85,95.437,541.422,538.009,0.0
52302.0,STARLINK-3564,PAYLOAD,2022-12-12 06:26:50,15.08862537,0.0002412,53.2185,1.6994,45.2684,314.8505,0.00061549,9.527e-05,0.0,0 STARLINK-3564,1 52302U 22041AT  22346.26864030  .00009527  00000-0  61549-3 0  9998,2 52302  53.2185   1.6994 0002412  45.2684 314.8505 15.08862537 37196,6917.812,95.436,541.345,538.008,0.0
52302.0,STARLINK-3564,PAYLOAD,2022-12-13 01:31:27,15.08849726,0.000241,53.2185,358.1311,54.6457,305.476,0.00032899,4.953e-05,0.0,0 STARLINK-3564,1 52302U 22041AT  22347.06351740  .00004953  00000-0  32899-3 0  9990,2 52302  53.2185 358.1311 0002410  54.6457 305.4760 15.08849726 37317,6917.851,95.437,541.383,538.048,0.0
52302.0,STARLINK-3564,PAYLOAD,2022-12-13 11:03:46,15.08844768,0.0002523,53.2173,356.3477,39.8239,320.2938,-1.2405e-05,-4.86e-06,0.0,0 STARLINK-3564,1 52302U 22041AT  22347.46095813 -.00000486  00000-0 -12405-4 0  9991,2 52302  53.2173 356.3477 0002523  39.8239 320.2938 15.08844768 36160,6917.866,95.437,541.476,537.985,0.0
52302.0,STARLINK-3564,PAYLOAD,2022-12-13 17:25:19,15.08842018,0.0002384,53.2157,355.1567,33.1049,327.0092,-4.0076e-05,-9.26e-06,0.0,0 STARLINK-3564,1 52302U 22041AT  22347.72591918 -.00000926  00000-0 -40076-4 0  9991,2 52302  53.2157 355.1567 0002384  33.1049 327.0092 15.08842018 37411,6917.874,95.437,541.388,538.09,0.0
52302.0,STARLINK-3564,PAYLOAD,2022-12-14 06:08:24,15.08843433,0.00024,53.2173,352.7774,41.4797,318.6377,3.8788e-05,3.29e-06,0.0,0 STARLINK-3564,1 52302U 22041AT  22348.25583715  .00000329  00000-0  38788-4 0  9998,2 52302  53.2173 352.7774 0002400  41.4797 318.6377 15.08843433 36281,6917.87,95.437,541.395,538.075,0.0
52302.0,STARLINK-3564,PAYLOAD,2022-12-14 17:16:06,15.08839273,0.0002442,53.2167,350.6961,38.2373,321.8792,2.0564e-05,3.9e-07,0.0,0 STARLINK-3564,1 52302U 22041AT  22348.71951944  .00000039  00000-0  20564-4 0  9993,2 52302  53.2167 350.6961 0002442  38.2373 321.8792 15.08839273 36351,6917.8830000000025,95.438,541.437,538.058,0.0
52302.0,STARLINK-3564,PAYLOAD,2022-12-15 05:59:11,15.08840621,0.000246,53.2178,348.3178,34.8039,325.3113,7.9721e-05,9.81e-06,0.0,0 STARLINK-3564,1 52302U 22041AT  22349.24944136  .00000981  00000-0  79721-4 0  9992,2 52302  53.2178 348.3178 0002460  34.8039 325.3113 15.08840621 37646,6917.878000000002,95.438,541.445,538.0419999999998,0.0
52302.0,STARLINK-3564,PAYLOAD,2022-12-15 09:09:57,15.08842926,0.0002391,53.218,347.7231,37.1103,323.0054,0.00012484,1.699e-05,0.0,0 STARLINK-3564,1 52302U 22041AT  22349.38191877  .00001699  00000-0  12484-3 0  9992,2 52302  53.2180 347.7231 0002391  37.1103 323.0054 15.08842926 36450,6917.871,95.437,541.391,538.082,0.0
52302.0,STARLINK-3564,PAYLOAD,2022-12-15 18:42:16,15.08839411,0.000252,53.2178,345.939,37.9687,322.1483,0.0001049,1.381e-05,0.0,0 STARLINK-3564,1 52302U 22041AT  22349.77936200  .00001381  00000-0  10490-3 0  9995,2 52302  53.2178 345.9390 0002520  37.9687 322.1483 15.08839411 36510,6917.882,95.438,541.49,538.004,0.0
52302.0,STARLINK-3564,PAYLOAD,2022-12-16 04:14:34,15.088522,0.0002347,53.2179,344.1553,39.4055,320.7107,0.00016216,2.294e-05,0.0,0 STARLINK-3564,1 52302U 22041AT  22350.17679196  .00002294  00000-0  16216-3 0  9995,2 52302  53.2179 344.1553 0002347  39.4055 320.7107 15.08852200 37784,6917.843000000003,95.437,541.332,538.0840000000002,0.0
52302.0,STARLINK-3564,PAYLOAD,2022-12-16 09:00:44,15.08850302,0.0002403,53.2182,343.2638,36.9743,323.1415,0.00016069,2.271e-05,0.0,0 STARLINK-3564,1 52302U 22041AT  22350.37551382  .00002271  00000-0  16069-3 0  9994,2 52302  53.2182 343.2638 0002403  36.9743 323.1415 15.08850302 36601,6917.849,95.437,541.376,538.052,0.0
52302.0,STARLINK-3564,PAYLOAD,2022-12-16 16:57:40,15.08841198,0.000247,53.2179,341.7769,34.8215,325.2938,8.5307e-05,1.07e-05,0.0,0 STARLINK-3564,1 52302U 22041AT  22350.70671829  .00001070  00000-0  85307-4 0  9998,2 52302  53.2179 341.7769 0002470  34.8215 325.2938 15.08841198 37865,6917.877,95.437,541.45,538.033,0.0
52302.0,STARLINK-3564,PAYLOAD,2022-12-17 08:51:32,15.08836543,0.0002361,53.218,338.8024,39.5005,320.6159,5.534e-05,5.92e-06,0.0,0 STARLINK-3564,1 52302U 22041AT  22351.36912290  .00000592  00000-0  55340-4 0  9993,2 52302  53.2180 338.8024 0002361  39.5005 320.6159 15.08836543 36755,6917.891,95.438,541.389,538.123,0.0
52302.0,STARLINK-3564,PAYLOAD,2022-12-17 16:48:28,15.08837691,0.0002366,53.2179,337.3157,39.6669,320.4495,-1.1046e-05,-4.64e-06,0.0,0 STARLINK-3564,1 52302U 22041AT  22351.70032408 -.00000464  00000-0 -11046-4 0  9990,2 52302  53.2179 337.3157 0002366  39.6669 320.4495 15.08837691 36808,6917.887,95.438,541.389,538.116,0.0
52302.0,STARLINK-3564,PAYLOAD,2022-12-18 05:31:33,15.08833794,0.0002197,53.2184,334.9369,41.6344,318.4815,-2.242800000000001e-05,-6.45e-06,0.0,0 STARLINK-3564,1 52302U 22041AT  22352.23024805 -.00000645  00000-0 -22428-4 0  9998,2 52302  53.2184 334.9369 0002197  41.6344 318.4815 15.08833794 36888,6917.899,95.438,541.284,538.244,0.0
52302.0,STARLINK-3564,PAYLOAD,2022-12-18 23:00:47,15.08838237,0.0002412,53.2179,331.6661,40.9198,319.1974,8.261600000000001e-05,1.027e-05,0.0,0 STARLINK-3564,1 52302U 22041AT  22352.95888415  .00001027  00000-0  82616-4 0  9990,2 52302  53.2179 331.6661 0002412  40.9198 319.1974 15.08838237 38209,6917.886,95.438,541.419,538.082,0.0
